[{"OBJECT_NAME":"SHIJIAN-6 02B (SJ-6 02B)","OBJECT_ID":"2006-046B","EPOCH":"2026-03-09T23:09:06.940224","MEAN_MOTION":15.01001333,"ECCENTRICITY":0.00140021,"INCLINATION":97.7065,"RA_OF_ASC_NODE":98.697,"ARG_OF_PERICENTER":42.7506,"MEAN_ANOMALY":317.4805,"EPHEMERIS_TYPE":0,"CLASSIFICATION_TYPE":"U","NORAD_CAT_ID":29506,"ELEMENT_SET_NO":999,"REV_AT_EPOCH":5585,"BSTAR":0.00024683398,"MEAN_MOTION_DOT":3.096e-5,"MEAN_MOTION_DDOT":0},{"OBJECT_NAME":"CZ-6A DEB","OBJECT_ID":"2024-140RW","EPOCH":"2026-03-09T13:41:33.080928","MEAN_MOTION":14.61642776,"ECCENTRICITY":0.0186599,"INCLINATION":89.0814,"RA_OF_ASC_NODE":287.5784,"ARG_OF_PERICENTER":250.6629,"MEAN_ANOMALY":107.4326,"EPHEMERIS_TYPE":0,"CLASSIFICATION_TYPE":"U","NORAD_CAT_ID":61176,"ELEMENT_SET_NO":999,"REV_AT_EPOCH":8226,"BSTAR":0.00033771,"MEAN_MOTION_DOT":2.172e-5,"MEAN_MOTION_DDOT":0}]
